{
  "norad_id": 49079,
  "name": "ONEWEB-0289",
  "history": [
    {
      "epoch": "2026-03-28T18:55:56.638272Z",
      "apogee_km": 1195.6553948853343,
      "perigee_km": 1191.189386294389,
      "latitude_deg": -4.4863659858700965e-05,
      "longitude_deg": -88.34545632561888,
      "height_km": 1196.286667517433,
      "semi_major_axis_km": 7571.559390589861,
      "eccentricity": 0.00029492,
      "inclination_deg": 87.9181,
      "raan_deg": 21.8448,
      "arg_perigee_deg": 89.2489,
      "mean_anomaly_deg": 270.898,
      "mean_motion_rev_day": 13.17724929
    },
    {
      "epoch": "2026-03-31T16:11:17.052288Z",
      "apogee_km": 1195.3643661956976,
      "perigee_km": 1192.0615252493726,
      "latitude_deg": -1.952653763634718e-05,
      "longitude_deg": -50.59714060517162,
      "height_km": 1196.0614876587051,
      "semi_major_axis_km": 7571.849945722534,
      "eccentricity": 0.0002181,
      "inclination_deg": 87.9187,
      "raan_deg": 21.2724,
      "arg_perigee_deg": 70.6762,
      "mean_anomaly_deg": 289.4605,
      "mean_motion_rev_day": 13.17649082
    },
    {
      "epoch": "2026-04-01T12:14:06.679392Z",
      "apogee_km": 1195.3378571526982,
      "perigee_km": 1192.0804489376587,
      "latitude_deg": 4.2342987091368e-05,
      "longitude_deg": 7.707277209634965,
      "height_km": 1196.0582960204272,
      "semi_major_axis_km": 7571.846153045179,
      "eccentricity": 0.0002151,
      "inclination_deg": 87.9189,
      "raan_deg": 21.1069,
      "arg_perigee_deg": 70.4163,
      "mean_anomaly_deg": 289.7201,
      "mean_motion_rev_day": 13.17650072
    },
    {
      "epoch": "2026-04-02T21:02:22.475328Z",
      "apogee_km": 1195.3262341737454,
      "perigee_km": 1192.0838199809114,
      "latitude_deg": 3.14570492380293e-05,
      "longitude_deg": -125.97666670110733,
      "height_km": 1196.0417080254588,
      "semi_major_axis_km": 7571.842027077329,
      "eccentricity": 0.00021411,
      "inclination_deg": 87.919,
      "raan_deg": 20.836,
      "arg_perigee_deg": 69.8524,
      "mean_anomaly_deg": 290.2838,
      "mean_motion_rev_day": 13.17651149
    }
  ]
}